start=new Date('2022-04-23T00:00:00.000Z').valueOf();
sats=[{"RCS_SIZE":"LARGE","INCLINATION":"53.0541","PERIOD":"95.591","TLE_LINE1":"1 48387U 21038AL  22112.82892872  .00004220  00000-0  30192-3 0  9994","MEAN_ELEMENT_THEORY":"SGP4","RA_OF_ASC_NODE":"227.1590","MEAN_MOTION":"15.06412467","APOAPSIS":"548.441","OBJECT_NAME":"STARLINK-2600","OBJECT_ID":"2021-038AL","NORAD_CAT_ID":"48387","TLE_LINE2":"2 48387  53.0541 227.1590 0001827  47.4147 312.6996 15.06412467 54271","GP_ID":"201832097","FILE":"3411645","REF_FRAME":"TEME","CLASSIFICATION_TYPE":"U","BSTAR":"0.00030192000000","PERIAPSIS":"545.910","MEAN_MOTION_DOT":"0.00004220","LAUNCH_DATE":"2021-05-04","MEAN_MOTION_DDOT":"0.0000000000000","COUNTRY_CODE":"US","EPHEMERIS_TYPE":"0","SITE":"AFETR","OBJECT_TYPE":"PAYLOAD","ARG_OF_PERICENTER":"47.4147","ELEMENT_SET_NO":"999","DECAY_DATE":null,"CENTER_NAME":"EARTH","SEMIMAJOR_AXIS":"6925.310","TIME_SYSTEM":"UTC","MEAN_ANOMALY":"312.6996","REV_AT_EPOCH":"5427","ECCENTRICITY":"0.00018270","EPOCH":"2022-04-22T19:53:39.441408"},{"RCS_SIZE":"LARGE","INCLINATION":"53.0550","TLE_LINE1":"1 48388U 21038AM  22112.62346880  .00003907  00000-0  28099-3 0  9990","PERIOD":"95.592","OBJECT_NAME":"STARLINK-2594","APOAPSIS":"548.307","MEAN_MOTION":"15.06403103","RA_OF_ASC_NODE":"228.0764","MEAN_ELEMENT_THEORY":"SGP4","OBJECT_ID":"2021-038AM","REF_FRAME":"TEME","FILE":"3411458","NORAD_CAT_ID":"48388","TLE_LINE2":"2 48388  53.0550 228.0764 0001593  52.2696 307.8437 15.06403103 53652","GP_ID":"201823390","CLASSIFICATION_TYPE":"U","BSTAR":"0.00028099000000","MEAN_MOTION_DOT":"0.00003907","PERIAPSIS":"546.101","COUNTRY_CODE":"US","MEAN_MOTION_DDOT":"0.0000000000000","LAUNCH_DATE":"2021-05-04","ARG_OF_PERICENTER":"52.2696","OBJECT_TYPE":"PAYLOAD","SITE":"AFETR","EPHEMERIS_TYPE":"0","CENTER_NAME":"EARTH","DECAY_DATE":null,"ELEMENT_SET_NO":"999","REV_AT_EPOCH":"5365","MEAN_ANOMALY":"307.8437","TIME_SYSTEM":"UTC","SEMIMAJOR_AXIS":"6925.339","ECCENTRICITY":"0.00015930","EPOCH":"2022-04-22T14:57:47.704320"},{"LAUNCH_DATE":"2021-05-04","MEAN_MOTION_DDOT":"0.0000000000000","COUNTRY_CODE":"US","OBJECT_TYPE":"PAYLOAD","SITE":"AFETR","EPHEMERIS_TYPE":"0","ARG_OF_PERICENTER":"56.3564","ELEMENT_SET_NO":"999","DECAY_DATE":null,"CENTER_NAME":"EARTH","TIME_SYSTEM":"UTC","SEMIMAJOR_AXIS":"6925.307","MEAN_ANOMALY":"303.7580","REV_AT_EPOCH":"5433","ECCENTRICITY":"0.00016270","EPOCH":"2022-04-22T19:26:29.375808","RCS_SIZE":"LARGE","INCLINATION":"53.0552","PERIOD":"95.591","TLE_LINE1":"1 48389U 21038AN  22112.81006222  .00003790  00000-0  27309-3 0  9998","MEAN_ELEMENT_THEORY":"SGP4","RA_OF_ASC_NODE":"222.2411","MEAN_MOTION":"15.06413423","APOAPSIS":"548.299","OBJECT_NAME":"STARLINK-1904","OBJECT_ID":"2021-038AN","TLE_LINE2":"2 48389  53.0552 222.2411 0001627  56.3564 303.7580 15.06413423 54333","NORAD_CAT_ID":"48389","GP_ID":"201832108","FILE":"3411646","REF_FRAME":"TEME","CLASSIFICATION_TYPE":"U","BSTAR":"0.00027309000000","PERIAPSIS":"546.046","MEAN_MOTION_DOT":"0.00003790"},{"OBJECT_ID":"2021-038AP","OBJECT_NAME":"STARLINK-2586","MEAN_MOTION":"15.06397518","APOAPSIS":"548.450","RA_OF_ASC_NODE":"222.5599","MEAN_ELEMENT_THEORY":"SGP4","TLE_LINE1":"1 48390U 21038AP  22112.74004040  .00001072  00000-0  90896-4 0  9991","PERIOD":"95.592","INCLINATION":"53.0531","RCS_SIZE":"LARGE","MEAN_MOTION_DOT":"0.00001072","PERIAPSIS":"545.993","BSTAR":"0.00009089600000","CLASSIFICATION_TYPE":"U","REF_FRAME":"TEME","FILE":"3411648","TLE_LINE2":"2 48390  53.0531 222.5599 0001774  43.6050 316.5079 15.06397518 54324","NORAD_CAT_ID":"48390","GP_ID":"201831881","ARG_OF_PERICENTER":"43.6050","SITE":"AFETR","OBJECT_TYPE":"PAYLOAD","EPHEMERIS_TYPE":"0","MEAN_MOTION_DDOT":"0.0000000000000","COUNTRY_CODE":"US","LAUNCH_DATE":"2021-05-04","EPOCH":"2022-04-22T17:45:39.490560","ECCENTRICITY":"0.00017740","REV_AT_EPOCH":"5432","MEAN_ANOMALY":"316.5079","TIME_SYSTEM":"UTC","SEMIMAJOR_AXIS":"6925.356","CENTER_NAME":"EARTH","DECAY_DATE":null,"ELEMENT_SET_NO":"999"},{"PERIOD":"95.590","TLE_LINE1":"1 48391U 21038AQ  22112.60365688  .00020885  00000-0  14153-2 0  9998","INCLINATION":"53.0547","RCS_SIZE":"LARGE","OBJECT_ID":"2021-038AQ","MEAN_ELEMENT_THEORY":"SGP4","RA_OF_ASC_NODE":"223.1732","MEAN_MOTION":"15.06440101","APOAPSIS":"548.477","OBJECT_NAME":"STARLINK-2607","CLASSIFICATION_TYPE":"U","NORAD_CAT_ID":"48391","TLE_LINE2":"2 48391  53.0547 223.1732 0002002  44.9529 315.1622 15.06440101 54931","GP_ID":"201823640","FILE":"3411458","REF_FRAME":"TEME","PERIAPSIS":"545.704","MEAN_MOTION_DOT":"0.00020885","BSTAR":"0.00141530000000","LAUNCH_DATE":"2021-05-04","MEAN_MOTION_DDOT":"0.0000000000000","COUNTRY_CODE":"US","SITE":"AFETR","OBJECT_TYPE":"PAYLOAD","EPHEMERIS_TYPE":"0","ARG_OF_PERICENTER":"44.9529","SEMIMAJOR_AXIS":"6925.226","TIME_SYSTEM":"UTC","MEAN_ANOMALY":"315.1622","REV_AT_EPOCH":"5493","ELEMENT_SET_NO":"999","DECAY_DATE":null,"CENTER_NAME":"EARTH","EPOCH":"2022-04-22T14:29:15.954432","ECCENTRICITY":"0.00020020"},{"ARG_OF_PERICENTER":"43.7981","SITE":"AFETR","OBJECT_TYPE":"PAYLOAD","EPHEMERIS_TYPE":"0","MEAN_MOTION_DDOT":"0.0000000000000","COUNTRY_CODE":"US","LAUNCH_DATE":"2021-05-04","ECCENTRICITY":"0.00017650","EPOCH":"2022-04-22T15:59:29.270400","CENTER_NAME":"EARTH","DECAY_DATE":null,"ELEMENT_SET_NO":"999","REV_AT_EPOCH":"5431","MEAN_ANOMALY":"316.3148","SEMIMAJOR_AXIS":"6925.313","TIME_SYSTEM":"UTC","OBJECT_NAME":"STARLINK-2605","APOAPSIS":"548.400","MEAN_MOTION":"15.06411617","RA_OF_ASC_NODE":"222.8911","MEAN_ELEMENT_THEORY":"SGP4","OBJECT_ID":"2021-038AR","RCS_SIZE":"LARGE","INCLINATION":"53.0551","TLE_LINE1":"1 48392U 21038AR  22112.66631100  .00005333  00000-0  37651-3 0  9990","PERIOD":"95.591","BSTAR":"0.00037651000000","MEAN_MOTION_DOT":"0.00005333","PERIAPSIS":"545.956","REF_FRAME":"TEME","FILE":"3411649","NORAD_CAT_ID":"48392","TLE_LINE2":"2 48392  53.0551 222.8911 0001765  43.7981 316.3148 15.06411617 54314","GP_ID":"201832157","CLASSIFICATION_TYPE":"U"},{"REV_AT_EPOCH":"5431","MEAN_ANOMALY":"313.4627","TIME_SYSTEM":"UTC","SEMIMAJOR_AXIS":"6925.284","CENTER_NAME":"EARTH","DECAY_DATE":null,"ELEMENT_SET_NO":"999","EPOCH":"2022-04-22T15:54:10.314432","ECCENTRICITY":"0.00016200","MEAN_MOTION_DDOT":"0.0000000000000","COUNTRY_CODE":"US","LAUNCH_DATE":"2021-05-04","ARG_OF_PERICENTER":"46.6497","OBJECT_TYPE":"PAYLOAD","SITE":"AFETR","EPHEMERIS_TYPE":"0","CLASSIFICATION_TYPE":"U","REF_FRAME":"TEME","FILE":"3411659","GP_ID":"201832174","TLE_LINE2":"2 48393  53.0537 222.9125 0001620  46.6497 313.4627 15.06421148 54311","NORAD_CAT_ID":"48393","MEAN_MOTION_DOT":"-0.00003088","PERIAPSIS":"546.027","BSTAR":"-0.00018841000000","TLE_LINE1":"1 48393U 21038AS  22112.66261938 -.00003088  00000-0 -18841-3 0  9996","PERIOD":"95.591","RCS_SIZE":"LARGE","INCLINATION":"53.0537","OBJECT_ID":"2021-038AS","OBJECT_NAME":"STARLINK-2602","MEAN_MOTION":"15.06421148","APOAPSIS":"548.271","RA_OF_ASC_NODE":"222.9125","MEAN_ELEMENT_THEORY":"SGP4"},{"EPOCH":"2022-04-22T14:13:20.284896","ECCENTRICITY":"0.00017020","REV_AT_EPOCH":"5493","MEAN_ANOMALY":"297.9429","TIME_SYSTEM":"UTC","SEMIMAJOR_AXIS":"6925.344","CENTER_NAME":"EARTH","DECAY_DATE":null,"ELEMENT_SET_NO":"999","ARG_OF_PERICENTER":"62.1732","SITE":"AFETR","OBJECT_TYPE":"PAYLOAD","EPHEMERIS_TYPE":"0","MEAN_MOTION_DDOT":"0.0000000000000","COUNTRY_CODE":"US","LAUNCH_DATE":"2021-05-04","MEAN_MOTION_DOT":"0.00000968","PERIAPSIS":"546.030","BSTAR":"0.00008390900000","CLASSIFICATION_TYPE":"U","REF_FRAME":"TEME","FILE":"3411458","TLE_LINE2":"2 48394  53.0557 223.2168 0001702  62.1732 297.9429 15.06401435 54932","GP_ID":"201824392","NORAD_CAT_ID":"48394","OBJECT_ID":"2021-038AT","OBJECT_NAME":"STARLINK-2573","MEAN_MOTION":"15.06401435","APOAPSIS":"548.388","RA_OF_ASC_NODE":"223.2168","MEAN_ELEMENT_THEORY":"SGP4","TLE_LINE1":"1 48394U 21038AT  22112.59259589  .00000968  00000-0  83909-4 0  9998","PERIOD":"95.592","RCS_SIZE":"LARGE","INCLINATION":"53.0557"},{"RCS_SIZE":"LARGE","INCLINATION":"53.0560","PERIOD":"95.592","TLE_LINE1":"1 48395U 21038AU  22112.57690774  .00001874  00000-0  14464-3 0  9998","MEAN_ELEMENT_THEORY":"SGP4","RA_OF_ASC_NODE":"223.2885","APOAPSIS":"548.498","MEAN_MOTION":"15.06405109","OBJECT_NAME":"STARLINK-2574","OBJECT_ID":"2021-038AU","GP_ID":"201823141","TLE_LINE2":"2 48395  53.0560 223.2885 0001878  58.4326 301.6846 15.06405109 54932","NORAD_CAT_ID":"48395","FILE":"3411458","REF_FRAME":"TEME","CLASSIFICATION_TYPE":"U","BSTAR":"0.00014464000000","PERIAPSIS":"545.897","MEAN_MOTION_DOT":"0.00001874","LAUNCH_DATE":"2021-05-04","COUNTRY_CODE":"US","MEAN_MOTION_DDOT":"0.0000000000000","EPHEMERIS_TYPE":"0","SITE":"AFETR","OBJECT_TYPE":"PAYLOAD","ARG_OF_PERICENTER":"58.4326","ELEMENT_SET_NO":"999","DECAY_DATE":null,"CENTER_NAME":"EARTH","SEMIMAJOR_AXIS":"6925.333","TIME_SYSTEM":"UTC","MEAN_ANOMALY":"301.6846","REV_AT_EPOCH":"5493","ECCENTRICITY":"0.00018780","EPOCH":"2022-04-22T13:50:44.828736"},{"COUNTRY_CODE":"US","MEAN_MOTION_DDOT":"0.0000000000000","LAUNCH_DATE":"2021-05-04","ARG_OF_PERICENTER":"50.8329","SITE":"AFETR","OBJECT_TYPE":"PAYLOAD","EPHEMERIS_TYPE":"0","ELEMENT_SET_NO":"999","CENTER_NAME":"EARTH","DECAY_DATE":null,"SEMIMAJOR_AXIS":"6925.346","TIME_SYSTEM":"UTC","REV_AT_EPOCH":"5493","MEAN_ANOMALY":"309.2817","ECCENTRICITY":"0.00017660","EPOCH":"2022-04-22T14:08:01.625280","INCLINATION":"53.0556","RCS_SIZE":"LARGE","PERIOD":"95.592","TLE_LINE1":"1 48396U 21038AV  22112.58890770  .00001647  00000-0  12947-3 0  9990","RA_OF_ASC_NODE":"223.2402","MEAN_ELEMENT_THEORY":"SGP4","OBJECT_NAME":"STARLINK-2575","APOAPSIS":"548.434","MEAN_MOTION":"15.06400950","OBJECT_ID":"2021-038AV","FILE":"3411458","TLE_LINE2":"2 48396  53.0556 223.2402 0001766  50.8329 309.2817 15.06400950 54939","GP_ID":"201823391","NORAD_CAT_ID":"48396","REF_FRAME":"TEME","CLASSIFICATION_TYPE":"U","BSTAR":"0.00012947000000","PERIAPSIS":"545.988","MEAN_MOTION_DOT":"0.00001647"}];
